[{"OBJECT_NAME":"STARLINK-31428","OBJECT_ID":"2024-060V","EPOCH":"2026-03-09T19:29:00.007296","MEAN_MOTION":15.27576066,"ECCENTRICITY":0.000214,"INCLINATION":43.0035,"RA_OF_ASC_NODE":258.9818,"ARG_OF_PERICENTER":272.9507,"MEAN_ANOMALY":87.11,"EPHEMERIS_TYPE":0,"CLASSIFICATION_TYPE":"U","NORAD_CAT_ID":59367,"ELEMENT_SET_NO":999,"REV_AT_EPOCH":11008,"BSTAR":1.193203e-5,"MEAN_MOTION_DOT":6.6e-7,"MEAN_MOTION_DDOT":0},{"OBJECT_NAME":"GEOSCAN 2 (RS92S2)","OBJECT_ID":"2025-155Q","EPOCH":"2026-03-09T23:01:48.939744","MEAN_MOTION":15.28709337,"ECCENTRICITY":0.00085277,"INCLINATION":97.4463,"RA_OF_ASC_NODE":37.5259,"ARG_OF_PERICENTER":140.9505,"MEAN_ANOMALY":219.2352,"EPHEMERIS_TYPE":0,"CLASSIFICATION_TYPE":"U","NORAD_CAT_ID":64890,"ELEMENT_SET_NO":999,"REV_AT_EPOCH":6561,"BSTAR":0.00051551761,"MEAN_MOTION_DOT":0.00014341,"MEAN_MOTION_DDOT":0}]
